BEIDOU-2 G3             
1 36590U 10024A   26191.65385525 -.00000130  00000+0  00000+0 0  9991
2 36590   4.5676  61.4067 0007228 359.3291 182.8355  1.00269176 59006
BADR-5                  
1 36592U 10025A   26191.31503042  .00000164  00000+0  00000+0 0  9999
2 36592   0.0423 131.1268 0005413  63.9227 237.0959  1.00275776 53446
COMS 1                  
1 36744U 10032A   26191.34928957 -.00000227  00000+0  00000+0 0  9996
2 36744   4.8616  75.0765 0011305  14.6921 305.5544  0.99169038 51315
ARABSAT-5A              
1 36745U 10032B   26191.85531087  .00000162  00000+0  00000+0 0  9994
2 36745   0.1015  64.4566 0005680  55.0340 147.6675  1.00272069 58883
ECHOSTAR 15             
1 36792U 10034A   26191.61462667  .00000009  00000+0  00000+0 0  9999
2 36792   0.0563 270.8900 0001923 176.2280 303.8630  1.00271032 58552
BEIDOU-2 IGSO-1         
1 36828U 10036A   26188.62304566 -.00000058  00000+0  00000+0 0  9996
2 36828  54.3062 162.7756 0059224 225.1869 229.2421  1.00266308 58302
NILESAT 201             
1 36830U 10037A   26191.85065234 -.00000049  00000+0  00000+0 0  9995
2 36830   0.0270 146.5885 0005460 350.5087  90.9175  1.00271708 58618
RASCOM-QAF 1R           
1 36831U 10037B   26191.85264567  .00000027  00000+0  00000+0 0  9991
2 36831   0.0237  77.7353 0006467  22.9636 137.9049  1.00272348 58540
AEHF-1 (USA 214)        
1 36868U 10039A   26191.85531087  .00000148  00000+0  00000+0 0  9991
2 36868   8.2764  67.7352 0003714  37.2294 161.6460  1.00272452 53894
XM-5                    
1 37185U 10053A   26191.30635405 -.00000012  00000+0  00000+0 0  9990
2 37185   0.0614 268.0589 0001858 315.7617  59.5021  1.00272157 57714
BSAT-3B                 
1 37207U 10056B   26191.23211028 -.00000339  00000+0  00000+0 0  9993
2 37207   0.0616 230.8905 0002548 314.7158 295.9456  1.00269903 52332
BEIDOU-2 G4             
1 37210U 10057A   26191.81243316 -.00000108  00000+0  00000+0 0  9991
2 37210   3.7017  68.8013 0005496 184.9146 127.4346  1.00270168 57527
SKYTERRA 1              
1 37218U 10061A   26191.54681080 -.00000113  00000+0  00000+0 0  9994
2 37218   5.1724  50.8097 0002093  37.0645 296.1088  1.00270670 57425
HYLAS 1                 
1 37237U 10065A   26191.85531087  .00000153  00000+0  00000+0 0  9997
2 37237   5.7007  72.7263 0001318 143.0890  47.4748  1.00638693  7128
INTELSAT 17 (IS-17)     
1 37238U 10065B   26191.86511171  .00000007  00000+0  00000+0 0  9999
2 37238   0.0170  89.3725 0002678  23.4957 193.3450  1.00271827 53483
BEIDOU-2 IGSO-2         
1 37256U 10068A   26191.65946204 -.00000197  00000+0  00000+0 0  9999
2 37256  47.5044 271.5406 0056906 213.4330 149.3314  1.00275347 57035
EUTELSAT KA-SAT 9A      
1 37258U 10069A   26191.06963265  .00000073  00000+0  00000+0 0  9995
2 37258   0.0598  11.9248 0004527 130.1855 179.9492  1.00271426 44232
HISPASAT 30W-5          
1 37264U 10070A   26191.84614565 -.00000207  00000+0  00000+0 0  9996
2 37264   0.0251 129.0369 0005536 355.7434  78.5988  1.00271431 53420
KOREASAT 6              
1 37265U 10070B   26191.81243316  .00000000  00000+0  00000+0 0  9996
2 37265   0.0248  33.5611 0002424  92.4452 255.1008  1.00270466 57005
BEIDOU-2 IGSO-3         
1 37384U 11013A   26190.51857615 -.00000172  00000+0  00000+0 0  9996
2 37384  62.4382  39.9419 0035198 183.2390 357.7550  1.00261852 55882
INTELSAT 28 (IS-28)     
1 37392U 11016A   26191.77444009 -.00000218  00000+0  00000+0 0  9997
2 37392   1.8643  82.3288 0003693  37.5417  55.8970  1.00272131 53523
YAHSAT 1A               
1 37393U 11016B   26191.43472206  .00000000  00000+0  00000+0 0  9999
2 37393   0.0267  48.7289 0003032  65.8949  22.7264  1.00271028 42649
SBIRS GEO-1 (USA 230)   
1 37481U 11019A   26191.81558690  .00000104  00000+0  00000+0 0  9999
2 37481   4.5872  53.1096 0001988  48.3121 172.7190  1.00272473 55632
TELSTAR 14R             
1 37602U 11021A   26191.76828674 -.00000271  00000+0  00000+0 0  9999
2 37602   0.0751  84.4519 0001727 356.2619  61.5647  1.00271046 56071
GSAT-8                  
1 37605U 11022A   26191.86294505  .00000091  00000+0  00000+0 0  9993
2 37605   2.1894  81.5367 0002670 165.7918  47.1851  1.00271718 53459
ST-2                    
1 37606U 11022B   26191.86944507  .00000000  00000+0  00000+0 0  9998
2 37606   0.0236  39.1218 0001421  88.5506 202.1212  1.00271746 55513
ZHONGXING-10            
1 37677U 11026A   26191.86901174 -.00000180  00000+0  00000+0 0  9993
2 37677   1.1044  83.9485 0003352  21.6068 221.5718  1.00269233 55232
SES-3                   
1 37748U 11035A   26191.61774669 -.00000094  00000+0  00000+0 0  9996
2 37748   1.3842  82.8308 0001937  26.5699 298.5357  1.00271453 54826
KAZSAT-2                
1 37749U 11035B   26191.29877829 -.00000187  00000+0  00000+0 0  9996
2 37749   0.0260 126.4813 0002055  44.4178 311.3918  1.00270077 53632
BEIDOU-2 IGSO-4         
1 37763U 11038A   26190.90650205  .00000037  00000+0  00000+0 0  9992
2 37763  54.6042 165.4715 0160178 231.4223 311.4635  1.00280644 54870
ASTRA 1N                
1 37775U 11041A   26191.86086316  .00000128  00000+0  00000+0 0  9992
2 37775   0.0737  32.9295 0005606  74.8371 150.1256  1.00269197 44761
BSAT-3C (JCSAT-110R)    
1 37776U 11041B   26191.47336453 -.00000340  00000+0  00000+0 0  9997
2 37776   0.0310 310.3023 0000285 287.3672 331.0878  1.00269385 50704
