OBJECT_NAME,OBJECT_ID,EPOCH,MEAN_MOTION,ECCENTRICITY,INCLINATION,RA_OF_ASC_NODE,ARG_OF_PERICENTER,MEAN_ANOMALY,EPHEMERIS_TYPE,CLASSIFICATION_TYPE,NORAD_CAT_ID,ELEMENT_SET_NO,REV_AT_EPOCH,BSTAR,MEAN_MOTION_DOT,MEAN_MOTION_DDOT
BEIDOU-2 G3,2010-024A,2026-07-10T15:41:33.093600,1.00269176,.0007228,4.5676,61.4067,359.3291,182.8355,0,U,36590,999,5900,0,-.13E-5,0
BADR-5,2010-025A,2026-07-10T07:33:38.628288,1.00275776,.00054139,0.0423,131.1268,63.9227,237.0959,0,U,36592,999,5344,0,.164E-5,0
COMS 1,2010-032A,2026-07-10T08:22:58.618848,0.99169038,.0011305,4.8616,75.0765,14.6921,305.5544,0,U,36744,999,5131,0,-.227E-5,0
ARABSAT-5A,2010-032B,2026-07-10T20:31:38.859168,1.00272069,.000568,0.1015,64.4566,55.0340,147.6675,0,U,36745,999,5888,0,.162E-5,0
ECHOSTAR 15,2010-034A,2026-07-10T14:45:03.744288,1.00271032,.0001923,0.0563,270.8900,176.2280,303.8630,0,U,36792,999,5855,0,.9E-7,0
BEIDOU-2 IGSO-1,2010-036A,2026-07-07T14:57:11.145024,1.00266308,.0059224,54.3062,162.7756,225.1869,229.2421,0,U,36828,999,5830,0,-.58E-6,0
NILESAT 201,2010-037A,2026-07-10T20:24:56.362176,1.00271708,.000546,0.0270,146.5885,350.5087,90.9175,0,U,36830,999,5861,0,-.49E-6,0
RASCOM-QAF 1R,2010-037B,2026-07-10T20:27:48.585888,1.00272348,.0006467,0.0237,77.7353,22.9636,137.9049,0,U,36831,999,5854,0,.27E-6,0
AEHF-1 (USA 214),2010-039A,2026-07-10T20:31:38.859168,1.00272452,.0003714,8.2764,67.7352,37.2294,161.6460,0,U,36868,999,5389,0,.148E-5,0
XM-5,2010-053A,2026-07-10T07:21:08.989920,1.00272157,.00018582,0.0614,268.0589,315.7617,59.5021,0,U,37185,999,5771,0,-.12E-6,0
BSAT-3B,2010-056B,2026-07-10T05:34:14.328192,1.00269903,.00025484,0.0616,230.8905,314.7158,295.9456,0,U,37207,999,5233,0,-.339E-5,0
BEIDOU-2 G4,2010-057A,2026-07-10T19:29:54.225024,1.00270168,.0005496,3.7017,68.8013,184.9146,127.4346,0,U,37210,999,5752,0,-.108E-5,0
SKYTERRA 1,2010-061A,2026-07-10T13:07:24.453120,1.00270670,.0002093,5.1724,50.8097,37.0645,296.1088,0,U,37218,999,5742,0,-.113E-5,0
HYLAS 1,2010-065A,2026-07-10T20:31:38.859168,1.00638693,.0001318,5.7007,72.7263,143.0890,47.4748,0,U,37237,999,712,0,.153E-5,0
INTELSAT 17 (IS-17),2010-065B,2026-07-10T20:45:45.651744,1.00271827,.0002678,0.0170,89.3725,23.4957,193.3450,0,U,37238,999,5348,0,.7E-7,0
BEIDOU-2 IGSO-2,2010-068A,2026-07-10T15:49:37.520256,1.00275347,.0056906,47.5044,271.5406,213.4330,149.3314,0,U,37256,999,5703,0,-.197E-5,0
EUTELSAT KA-SAT 9A,2010-069A,2026-07-10T01:40:16.260960,1.00271426,.00045277,0.0598,11.9248,130.1855,179.9492,0,U,37258,999,4423,0,.73E-6,0
HISPASAT 30W-5,2010-070A,2026-07-10T20:18:26.984160,1.00271431,.0005536,0.0251,129.0369,355.7434,78.5988,0,U,37264,999,5342,0,-.207E-5,0
KOREASAT 6,2010-070B,2026-07-10T19:29:54.225024,1.00270466,.0002424,0.0248,33.5611,92.4452,255.1008,0,U,37265,999,5700,0,0,0
BEIDOU-2 IGSO-3,2011-013A,2026-07-09T12:26:44.979360,1.00261852,.00351984,62.4382,39.9419,183.2390,357.7550,0,U,37384,999,5588,0,-.172E-5,0
INTELSAT 28 (IS-28),2011-016A,2026-07-10T18:35:11.623776,1.00272131,.0003693,1.8643,82.3288,37.5417,55.8970,0,U,37392,999,5352,0,-.218E-5,0
YAHSAT 1A,2011-016B,2026-07-10T10:25:59.985984,1.00271028,.00030326,0.0267,48.7289,65.8949,22.7264,0,U,37393,999,4264,0,0,0
SBIRS GEO-1 (USA 230),2011-019A,2026-07-10T19:34:26.708160,1.00272473,.0001988,4.5872,53.1096,48.3121,172.7190,0,U,37481,999,5563,0,.104E-5,0
TELSTAR 14R,2011-021A,2026-07-10T18:26:19.974336,1.00271046,.0001727,0.0751,84.4519,356.2619,61.5647,0,U,37602,999,5607,0,-.271E-5,0
GSAT-8,2011-022A,2026-07-10T20:42:38.452320,1.00271718,.000267,2.1894,81.5367,165.7918,47.1851,0,U,37605,999,5345,0,.91E-6,0
ST-2,2011-022B,2026-07-10T20:52:00.054048,1.00271746,.0001421,0.0236,39.1218,88.5506,202.1212,0,U,37606,999,5551,0,0,0
ZHONGXING-10,2011-026A,2026-07-10T20:51:22.614336,1.00269233,.0003352,1.1044,83.9485,21.6068,221.5718,0,U,37677,999,5523,0,-.18E-5,0
SES-3,2011-035A,2026-07-10T14:49:33.314016,1.00271453,.0001937,1.3842,82.8308,26.5699,298.5357,0,U,37748,999,5482,0,-.94E-6,0
KAZSAT-2,2011-035B,2026-07-10T07:10:14.444256,1.00270077,.00020552,0.0260,126.4813,44.4178,311.3918,0,U,37749,999,5363,0,-.187E-5,0
BEIDOU-2 IGSO-4,2011-038A,2026-07-09T21:45:21.777120,1.00280644,.01601787,54.6042,165.4715,231.4223,311.4635,0,U,37763,999,5487,0,.37E-6,0
ASTRA 1N,2011-041A,2026-07-10T20:39:38.577024,1.00269197,.0005606,0.0737,32.9295,74.8371,150.1256,0,U,37775,999,4476,0,.128E-5,0
BSAT-3C (JCSAT-110R),2011-041B,2026-07-10T11:21:38.695392,1.00269385,.00002856,0.0310,310.3023,287.3672,331.0878,0,U,37776,999,5070,0,-.34E-5,0
